IRIDIUM 135             
1 43070U 17083A   26199.82647176  .00000000  00000+0 -71599-5 0  9997
2 43070  86.3984 308.7903 0002115  95.2465 264.8972 14.34217719448681
IRIDIUM 138             
1 43071U 17083B   26199.85184082  .00000191  00000+0  61198-4 0  9996
2 43071  86.4001 308.4798 0002031  94.0364 266.1064 14.34217095448677
IRIDIUM 116             
1 43072U 17083C   26199.82012926  .00000126  00000+0  38090-4 0  9994
2 43072  86.3989 308.7782 0002494 100.0325 260.1153 14.34216762448703
IRIDIUM 130             
1 43073U 17083D   26199.78841757  .00000141  00000+0  43440-4 0  9994
2 43073  86.3995 309.0701 0002330 100.3469 259.7989 14.34218787448640
IRIDIUM 151             
1 43074U 17083E   26199.83281507  .00000105  00000+0  30314-4 0  9998
2 43074  86.3987 308.8319 0002288  95.5385 264.6072 14.34217703448676
IRIDIUM 134             
1 43075U 17083F   26199.80110170  .00000040  00000+0  70452-5 0  9999
2 43075  86.3990 308.8534 0002248  96.6551 263.4901 14.34217856448636
IRIDIUM 137             
1 43076U 17083G   26199.81378775 -.00000010  00000+0 -10621-4 0  9998
2 43076  86.3987 308.9417 0002561  91.9723 268.1766 14.34217624448703
IRIDIUM 141             
1 43077U 17083H   26199.80744412  .00000135  00000+0  41321-4 0  9990
2 43077  86.3986 308.7730 0002095  94.1815 265.9620 14.34217612448709
IRIDIUM 153             
1 43078U 17083J   26199.75962276  .00000024  00000+0  13332-5 0  9994
2 43078  86.3957 277.2716 0002127  95.7446 264.3992 14.34217675449801
IRIDIUM 131             
1 43079U 17083K   26199.79475907 -.00000036  00000+0 -19877-4 0  9993
2 43079  86.3986 308.9664 0002088  93.6613 266.4822 14.34217464448638
IRIDIUM 144             
1 43249U 18030A   26199.76596534  .00000083  00000+0  22481-4 0  9997
2 43249  86.3956 277.1974 0002356  95.4703 264.6762 14.34217236434661
IRIDIUM 149             
1 43250U 18030B   26199.91184509  .00000009  00000+0 -38347-5 0  9999
2 43250  86.3952 277.1027 0002118  93.4083 266.7356 14.34217616434702
IRIDIUM 157             
1 43251U 18030C   26199.93087341  .00000119  00000+0  35373-4 0  9994
2 43251  86.3955 277.1489 0002285  95.1521 264.9936 14.34218776434688
IRIDIUM 140             
1 43252U 18030D   26199.74059679  .00000132  00000+0  39983-4 0  9993
2 43252  86.3956 277.2411 0002253  95.9238 264.2215 14.34218472434714
IRIDIUM 145             
1 43253U 18030E   26199.72791065  .00000044  00000+0  87028-5 0  9990
2 43253  86.3955 277.2185 0002551  98.2475 261.9010 14.34217371434648
IRIDIUM 146             
1 43254U 18030F   26199.70888276  .00000028  00000+0  30874-5 0  9999
2 43254  86.3955 277.2385 0002364  96.0709 264.0757 14.34217491434655
IRIDIUM 148             
1 43255U 18030G   26199.74693895  .00000129  00000+0  38960-4 0  9990
2 43255  86.3956 277.2662 0002337  93.0815 267.0648 14.34218832434696
IRIDIUM 142             
1 43256U 18030H   26199.92453049  .00000016  00000+0 -15119-5 0  9994
2 43256  86.3951 277.0795 0002339  95.8234 264.3229 14.34217708434689
IRIDIUM 150             
1 43257U 18030J   26199.96258567  .00000067  00000+0  16702-4 0  9990
2 43257  86.3957 277.1816 0002302  96.1138 264.0320 14.34217339434711
IRIDIUM 143             
1 43258U 18030K   26199.73425292  .00000120  00000+0  35627-4 0  9994
2 43258  86.3959 277.3706 0002366  96.8546 263.2919 14.34218381434616
IRIDIUM 161             
1 43478U 18047C   26199.71452809  .00000144  00000+0  36822-4 0  9992
2 43478  86.4458  75.2858 0002196  80.6814 279.4635 14.43276704429686
IRIDIUM 152             
1 43479U 18047D   26199.70697047 -.00000109  00000+0 -45883-4 0  9997
2 43479  86.3931  75.1499 0002011  83.5543 276.5881 14.34217536427002
IRIDIUM 147             
1 43480U 18047E   26199.92261885  .00000063  00000+0  15337-4 0  9998
2 43480  86.3934  75.0657 0002289  87.7353 272.4105 14.34217675427035
IRIDIUM 110             
1 43481U 18047F   26199.92895886  .00000121  00000+0  36211-4 0  9992
2 43481  86.3938  75.1558 0002076  77.6509 282.4919 14.34216664427026
IRIDIUM 162             
1 43482U 18047G   26199.91621924  .00000160  00000+0  41450-4 0  9996
2 43482  86.4456  75.0919 0002192  86.6057 273.5395 14.43279558429707
IRIDIUM 160             
1 43569U 18061A   26199.80502805  .00000106  00000+0  30811-4 0  9991
2 43569  86.3939  43.5712 0002216  86.6080 273.5370 14.34217817417904
IRIDIUM 166             
1 43570U 18061B   26199.55132512  .00000015  00000+0 -17828-5 0  9993
2 43570  86.3937  43.6276 0002287  89.7724 270.3734 14.34217675417896
IRIDIUM 158             
1 43571U 18061C   26199.51961208  .00000026  00000+0  22409-5 0  9994
2 43571  86.3939  43.6504 0002105  89.1627 270.9810 14.34217136417857
IRIDIUM 165             
1 43572U 18061D   26199.54498313  .00000058  00000+0  13649-4 0  9990
2 43572  86.3940  43.6873 0002292  89.8809 270.2649 14.34217727417887
IRIDIUM 155             
1 43573U 18061E   26199.50692677  .00000023  00000+0  12651-5 0  9991
2 43573  86.3935  43.5703 0002143  90.7534 269.3907 14.34217569417840
